$$SOE
2461288.500000000, A.D. 2026-Sep-05 00:00:00.0000, 2.291903159959933E+08, -1.612256975361808E+08, 7.657083618493535E+06,
2461295.500000000, A.D. 2026-Sep-12 00:00:00.0000, 2.375023075747213E+08, -1.497633294908949E+08, 8.788770182686888E+06,
2461302.500000000, A.D. 2026-Sep-19 00:00:00.0000, 2.452943722947424E+08, -1.379730764053050E+08, 9.901217640413962E+06,
2461309.500000000, A.D. 2026-Sep-26 00:00:00.0000, 2.525534082332128E+08, -1.258829727317159E+08, 1.099215066692533E+07,
2461316.500000000, A.D. 2026-Oct-03 00:00:00.0000, 2.592682417089077E+08, -1.135215826733996E+08, 1.205939912942864E+07,
2461323.500000000, A.D. 2026-Oct-10 00:00:00.0000, 2.654296336730206E+08, -1.009178322533333E+08, 1.310090680549954E+07,
2461330.500000000, A.D. 2026-Oct-17 00:00:00.0000, 2.710302685413786E+08, -8.810084505321784E+07, 1.411473872120989E+07,
2461337.500000000, A.D. 2026-Oct-24 00:00:00.0000, 2.760647265833895E+08, -7.509978373120978E+07, 1.509908708164685E+07,
2461344.500000000, A.D. 2026-Oct-31 00:00:00.0000, 2.805294412941650E+08, -6.194369922662280E+07, 1.605227578273723E+07,
2461351.500000000, A.D. 2026-Nov-07 00:00:00.0000, 2.844226436000574E+08, -4.866138913435484E+07, 1.697276350533563E+07,
2461358.500000000, A.D. 2026-Nov-14 00:00:00.0000, 2.877442947537186E+08, -3.528126561167872E+07, 1.785914549505037E+07,
2461365.500000000, A.D. 2026-Nov-21 00:00:00.0000, 2.904960078696298E+08, -2.183123309049988E+07, 1.871015432367353E+07,
2461372.500000000, A.D. 2026-Nov-28 00:00:00.0000, 2.926809588991083E+08, -8.338579479554852E+06, 1.952465956789004E+07,
2461379.500000000, A.D. 2026-Dec-05 00:00:00.0000, 2.943037924317208E+08, 5.170118094223783E+06, 2.030166611903016E+07,
2461386.500000000, A.D. 2026-Dec-12 00:00:00.0000, 2.953705242033625E+08, 1.866907598852715E+07, 2.104031147255101E+07,
2461393.500000000, A.D. 2026-Dec-19 00:00:00.0000, 2.958884400575823E+08, 3.213337530075479E+07, 2.173986228747369E+07,
2461400.500000000, A.D. 2026-Dec-26 00:00:00.0000, 2.958659927351449E+08, 4.553902110840571E+07, 2.239971027652079E+07,
2461407.500000000, A.D. 2027-Jan-02 00:00:00.0000, 2.953126981462399E+08, 5.886298997476450E+07, 2.301936750343454E+07,
2461414.500000000, A.D. 2027-Jan-09 00:00:00.0000, 2.942390324692557E+08, 7.208326634904833E+07, 2.359846119220096E+07,
2461421.500000000, A.D. 2027-Jan-16 00:00:00.0000, 2.926563311802329E+08, 8.517886858550608E+07, 2.413672815397257E+07,
2461428.500000000, A.D. 2027-Jan-23 00:00:00.0000, 2.905766909687763E+08, 9.812986533455256E+07, 2.463400892561810E+07,
2461435.500000000, A.D. 2027-Jan-30 00:00:00.0000, 2.880128754832144E+08, 1.109173830997006E+08, 2.509024169207484E+07,
2461442.500000000, A.D. 2027-Feb-06 00:00:00.0000, 2.849782259340629E+08, 1.235236061627302E+08, 2.550545606462624E+07,
2461449.500000000, A.D. 2027-Feb-13 00:00:00.0000, 2.814865765494906E+08, 1.359317709622120E+08, 2.587976692921831E+07,
2461456.500000000, A.D. 2027-Feb-20 00:00:00.0000, 2.775521728486367E+08, 1.481261549988481E+08, 2.621336858298710E+07,
2461463.500000000, A.D. 2027-Feb-27 00:00:00.0000, 2.731895943624884E+08, 1.600920578873170E+08, 2.650652882704598E+07,
2461470.500000000, A.D. 2027-Mar-06 00:00:00.0000, 2.684136849412139E+08, 1.718157772584726E+08, 2.675958294138321E+07,
2461477.500000000, A.D. 2027-Mar-13 00:00:00.0000, 2.632394890709521E+08, 1.832845822998078E+08, 2.697292789320591E+07,
2461484.500000000, A.D. 2027-Mar-20 00:00:00.0000, 2.576821930244040E+08, 1.944866847883995E+08, 2.714701684500952E+07,
2461491.500000000, A.D. 2027-Mar-27 00:00:00.0000, 2.517570709412045E+08, 2.054112076984093E+08, 2.728235392297187E+07,
2461498.500000000, A.D. 2027-Apr-03 00:00:00.0000, 2.454794358841800E+08, 2.160481519070132E+08, 2.737948924064896E+07,
2461505.500000000, A.D. 2027-Apr-10 00:00:00.0000, 2.388645957357626E+08, 2.263883615345172E+08, 2.743901418607441E+07,
2461512.500000000, A.D. 2027-Apr-17 00:00:00.0000, 2.319278137293244E+08, 2.364234883596029E+08, 2.746155697604418E+07,
2461519.500000000, A.D. 2027-Apr-24 00:00:00.0000, 2.246842734457280E+08, 2.461459556479915E+08, 2.744777846814120E+07,
2461526.500000000, A.D. 2027-May-01 00:00:00.0000, 2.171490483126094E+08, 2.555489217715575E+08, 2.739836820489201E+07,
2461533.500000000, A.D. 2027-May-08 00:00:00.0000, 2.093370756462846E+08, 2.646262446655563E+08, 2.731404071942809E+07,
2461540.500000000, A.D. 2027-May-15 00:00:00.0000, 2.012631334652538E+08, 2.733724483242878E+08, 2.719553231043820E+07,
2461547.500000000, A.D. 2027-May-22 00:00:00.0000, 1.929418182307796E+08, 2.817826889543685E+08, 2.704359821004970E+07,
2461554.500000000, A.D. 2027-May-29 00:00:00.0000, 1.843875266080189E+08, 2.898527195032850E+08, 2.685900970977077E+07,
2461561.500000000, A.D. 2027-Jun-05 00:00:00.0000, 1.756144418823508E+08, 2.975788558365495E+08, 2.664255140868956E+07,
2461568.500000000, A.D. 2027-Jun-12 00:00:00.0000, 1.666365227750633E+08, 3.049579451026646E+08, 2.639501879135878E+07,
2461575.500000000, A.D. 2027-Jun-19 00:00:00.0000, 1.574674940919962E+08, 3.119873354347199E+08, 2.611721607742889E+07,
2461582.500000000, A.D. 2027-Jun-26 00:00:00.0000, 1.481208392636414E+08, 3.186648467858634E+08, 2.580995428333993E+07,
2461589.500000000, A.D. 2027-Jul-03 00:00:00.0000, 1.386097946988627E+08, 3.249887429418525E+08, 2.547404947110784E+07,
2461596.500000000, A.D. 2027-Jul-10 00:00:00.0000, 1.289473457880888E+08, 3.309577047370887E+08, 2.511032116826488E+07,
2461603.500000000, A.D. 2027-Jul-17 00:00:00.0000, 1.191462244024387E+08, 3.365708044438559E+08, 2.471959094077696E+07,
2461610.500000000, A.D. 2027-Jul-24 00:00:00.0000, 1.092189078715698E+08, 3.418274812756863E+08, 2.430268108971363E+07,
2461617.500000000, A.D. 2027-Jul-31 00:00:00.0000, 9.917761969733915E+07, 3.467275182378333E+08, 2.386041344432685E+07,
2461624.500000000, A.D. 2027-Aug-07 00:00:00.0000, 8.903433166692360E+07, 3.512710214639294E+08, 2.339360835462271E+07,
2461631.500000000, A.D. 2027-Aug-14 00:00:00.0000, 7.880076494152927E+07, 3.554584017551922E+08, 2.290308406283374E+07,
2461638.500000000, A.D. 2027-Aug-21 00:00:00.0000, 6.848839061732987E+07, 3.592903549169987E+08, 2.238965611174713E+07,
2461645.500000000, A.D. 2027-Aug-28 00:00:00.0000, 5.810843307920583E+07, 3.627678420639424E+08, 2.185413656483154E+07,
2461652.500000000, A.D. 2027-Sep-04 00:00:00.0000, 4.767187487244496E+07, 3.658920723576331E+08, 2.129733334169917E+07,
2461659.500000000, A.D. 2027-Sep-11 00:00:00.0000, 3.718946160883920E+07, 3.686644874696443E+08, 2.072004973390625E+07,
2461666.500000000, A.D. 2027-Sep-18 00:00:00.0000, 2.667170695915566E+07, 3.710867470744245E+08, 2.012308402789006E+07,
2461673.500000000, A.D. 2027-Sep-25 00:00:00.0000, 1.612889788868048E+07, 3.731607152507593E+08, 1.950722920049177E+07,
2461680.500000000, A.D. 2027-Oct-02 00:00:00.0000, 5.571100146794082E+06, 3.748884477757423E+08, 1.887327267570987E+07,
2461687.500000000, A.D. 2027-Oct-09 00:00:00.0000, -4.991836023979793E+06, 3.762721802634106E+08, 1.822199613400277E+07,
2461694.500000000, A.D. 2027-Oct-16 00:00:00.0000, -1.555026994701806E+07, 3.773143170503538E+08, 1.755417535809499E+07,
2461701.500000000, A.D. 2027-Oct-23 00:00:00.0000, -2.609476412415684E+07, 3.780174207807161E+08, 1.687058008571967E+07,
2461708.500000000, A.D. 2027-Oct-30 00:00:00.0000, -3.661607706774175E+07, 3.783842032611999E+08, 1.617197388005078E+07,
2461715.500000000, A.D. 2027-Nov-06 00:00:00.0000, -4.710515655057953E+07, 3.784175186779854E+08, 1.545911421225083E+07,
2461722.500000000, A.D. 2027-Nov-13 00:00:00.0000, -5.755313528678893E+07, 3.781203570603479E+08, 1.473275276410937E+07,
2461729.500000000, A.D. 2027-Nov-20 00:00:00.0000, -6.795132617040376E+07, 3.774958357621848E+08, 1.399363550250196E+07,
2461736.500000000, A.D. 2027-Nov-27 00:00:00.0000, -7.829121548290570E+07, 3.765471918949308E+08, 1.324250261675057E+07,
2461743.500000000, A.D. 2027-Dec-04 00:00:00.0000, -8.856445611272068E+07, 3.752777765978258E+08, 1.248008857595271E+07,
2461750.500000000, A.D. 2027-Dec-11 00:00:00.0000, -9.876286135393292E+07, 3.736910501495457E+08, 1.170712227509648E+07,
2461757.500000000, A.D. 2027-Dec-18 00:00:00.0000, -1.088783990252575E+08, 3.717905775519702E+08, 1.092432721459337E+07,
2461764.500000000, A.D. 2027-Dec-25 00:00:00.0000, -1.189031857709973E+08, 3.695800245565183E+08, 1.013242169687957E+07,
2461771.500000000, A.D. 2028-Jan-01 00:00:00.0000, -1.288294815137848E+08, 3.670631541217330E+08, 9.332119035399169E+06,
$$EOE